     2.100          NAVIGATION                              RINEX VERSION / TYPE
fic2rin                                 11/29/2010 00:25:32 PGM / RUN BY / DATE
                                                            END OF HEADER
11 10 11 28  4  0  0.0 -.107195228338D-03 -.284217094304D-11  .000000000000D+00
     .420000000000D+02  .410937500000D+02  .630347685083D-08  .106385457978D+01
     .220723450184D-05  .114852922270D-01  .879913568497D-05  .515348268127D+04
     .144000000000D+05 -.186264514923D-06  .202453720727D+01  .502914190292D-07
     .887862897202D+00  .173031250000D+03  .886091546252D+00 -.904359098758D-08
     .113933317209D-09  .100000000000D+01  .161200000000D+04  .000000000000D+00
     .240000000000D+01  .000000000000D+00 -.116415321827D-07  .420000000000D+02
     .720600000000D+04  .400000000000D+01
12 10 11 28  4  0  0.0 -.498509034514D-04  .352429196937D-11  .000000000000D+00
     .890000000000D+02 -.712812500000D+02  .452697428094D-08  .118221843015D+01
    -.374391674995D-05  .336092070211D-02  .536255538464D-05  .515355616951D+04
     .144000000000D+05  .614672899246D-07  .187306092885D+00  .819563865662D-07
     .973242977328D+00  .280250000000D+03 -.322716290429D+00 -.822427114533D-08
    -.206080012631D-09  .100000000000D+01  .161200000000D+04  .000000000000D+00
     .240000000000D+01  .000000000000D+00 -.116415321827D-07  .890000000000D+02
     .720600000000D+04  .400000000000D+01
13 10 11 28  4  0  0.0  .290748197585D-03 -.113686837722D-11  .000000000000D+00
     .380000000000D+02  .416875000000D+02  .385087469010D-08 -.269876565840D+01
     .217184424400D-05  .430090317968D-02  .936724245548D-05  .515367830086D+04
     .144000000000D+05  .558793544769D-07 -.184494552468D+01  .651925802231D-07
     .991239188428D+00  .216156250000D+03  .180244078806D+01 -.765460455929D-08
    -.214294640518D-10  .100000000000D+01  .161200000000D+04  .000000000000D+00
     .240000000000D+01  .000000000000D+00 -.107102096081D-07  .380000000000D+02
     .720600000000D+04  .400000000000D+01
14 10 11 28  4  0  0.0  .110981985927D-03  .329691829393D-11  .000000000000D+00
     .260000000000D+02  .234687500000D+02  .391623455546D-08 -.274304463816D+01
     .127963721752D-05  .574026815593D-02  .954978168011D-05  .515360416985D+04
     .144000000000D+05  .707805156708D-07 -.186796333814D+01 -.633299350739D-07
     .984394696516D+00  .206656250000D+03 -.208831552304D+01 -.771389274317D-08
    -.760745973838D-10  .100000000000D+01  .161200000000D+04  .000000000000D+00
     .240000000000D+01  .000000000000D+00 -.884756445885D-08  .260000000000D+02
     .720600000000D+04  .400000000000D+01
15 10 11 28  4  0  0.0 -.178194139153D-03  .443378667114D-11  .000000000000D+00
     .360000000000D+02  .302500000000D+02  .470233872843D-08 -.297793397607D+01
     .168941915035D-05  .307566113770D-02  .103022903204D-04  .515386137390D+04
     .144000000000D+05 -.484287738800D-07 -.193796800735D+01 -.260770320892D-07
     .951806604646D+00  .175500000000D+03 -.186078649025D+00 -.809605151876D-08
    -.126076680171D-09  .100000000000D+01  .161200000000D+04  .000000000000D+00
     .240000000000D+01  .000000000000D+00 -.977888703346D-08  .360000000000D+02
     .720600000000D+04  .400000000000D+01
16 10 11 28  4  0  0.0 -.129817053676D-03 -.318323145621D-11  .000000000000D+00
     .440000000000D+02 -.669687500000D+02  .434946688704D-08 -.118449078958D+01
    -.347383320332D-05  .590615556575D-02  .567734241486D-05  .515370102119D+04
     .144000000000D+05 -.372529029846D-08  .204942562189D+00 -.102445483208D-06
     .974350846652D+00  .278343750000D+03 -.162601985460D+00 -.814105339327D-08
    -.642883921553D-10  .100000000000D+01  .161200000000D+04  .000000000000D+00
     .240000000000D+01  .000000000000D+00 -.977888703346D-08  .440000000000D+02
     .720600000000D+04  .400000000000D+01
17 10 11 28  4  0  0.0  .178432092071D-03  .102318153949D-11  .000000000000D+00
     .670000000000D+02 -.428125000000D+02  .425553440295D-08 -.221825189075D+01
    -.213831663132D-05  .576134491712D-02  .114589929581D-04  .515368951416D+04
     .144000000000D+05 -.335276126862D-07  .124773713861D+01 -.707805156708D-07
     .960341731002D+00  .157468750000D+03 -.250504187849D+01 -.777568103118D-08
     .107147320259D-09  .100000000000D+01  .161200000000D+04  .000000000000D+00
     .240000000000D+01  .000000000000D+00 -.102445483208D-07  .670000000000D+02
     .720600000000D+04  .400000000000D+01
18 10 11 28  4  0  0.0  .107182189822D-03  .216004991671D-11  .000000000000D+00
     .830000000000D+02  .950000000000D+01  .541986861643D-08 -.896881910046D+00
     .726431608200D-06  .118303678464D-01  .610388815403D-05  .515374336433D+04
     .144000000000D+05  .156462192535D-06 -.294820260626D+01  .255182385445D-06
     .935426556682D+00  .247781250000D+03 -.228084687843D+01 -.865607484598D-08
    -.215366113720D-09  .100000000000D+01  .161200000000D+04  .000000000000D+00
     .340000000000D+01  .000000000000D+00 -.107102096081D-07  .830000000000D+02
     .720600000000D+04  .400000000000D+01
19 10 11 28  4  0  0.0 -.870912335813D-04 -.341060513165D-11  .000000000000D+00
     .790000000000D+02 -.316562500000D+02  .438768276460D-08 -.305710836063D+01
    -.163167715073D-05  .677906582132D-02  .104606151581D-04  .515359949875D+04
     .144000000000D+05 -.651925802231D-07  .130229042757D+01  .242143869400D-07
     .957886664807D+00  .177687500000D+03 -.215495674317D-01 -.788497129785D-08
     .632169189527D-10  .100000000000D+01  .161200000000D+04  .000000000000D+00
     .240000000000D+01  .000000000000D+00 -.149011611938D-07  .790000000000D+02
     .720600000000D+04  .400000000000D+01
20 10 11 28  4  0  0.0  .493335537612D-04 -.227373675443D-12  .000000000000D+00
     .460000000000D+02  .762500000000D+01  .539379610183D-08 -.517419722208D+00
     .406056642532D-06  .443525193259D-02  .622123479843D-05  .515378204536D+04
     .144000000000D+05 -.465661287308D-07 -.300212820680D+01  .223517417908D-07
     .935454041987D+00  .250812500000D+03  .125841489575D+01 -.861785896842D-08
    -.198579700213D-09  .100000000000D+01  .161200000000D+04  .000000000000D+00
     .240000000000D+01  .000000000000D+00 -.791624188423D-08  .460000000000D+02
     .720600000000D+04  .400000000000D+01
21 10 11 28  4  0  0.0 -.105483923107D-03 -.272848410532D-11  .000000000000D+00
     .330000000000D+02  .364375000000D+02  .539058168222D-08  .323021250332D+00
     .210665166378D-05  .169779005228D-01  .799074769020D-05  .515360647202D+04
     .144000000000D+05 -.428408384323D-07  .227971495288D+01  .298023223877D-06
     .931992369657D+00  .211656250000D+03 -.243047972939D+01 -.868571893791D-08
     .208222959036D-09  .100000000000D+01  .161200000000D+04  .000000000000D+00
     .240000000000D+01  .000000000000D+00 -.116415321827D-07  .330000000000D+02
     .720600000000D+04  .400000000000D+01
22 10 11 28  4  0  0.0  .158005394042D-03 -.568434188608D-12  .000000000000D+00
     .101000000000D+03  .778125000000D+01  .536058043255D-08 -.178030231271D+01
     .463798642159D-06  .547590455972D-02  .594370067120D-05  .515371791458D+04
     .144000000000D+05  .141561031342D-06 -.294368655474D+01  .447034835815D-07
     .933117726704D+00  .247843750000D+03 -.192883771032D+01 -.849178228825D-08
    -.185364864048D-09  .100000000000D+01  .161200000000D+04  .000000000000D+00
     .340000000000D+01  .000000000000D+00 -.176951289177D-07  .101000000000D+03
     .720600000000D+04  .400000000000D+01
23 10 11 28  4  0  0.0  .341170001775D-03 -.204636307899D-11  .000000000000D+00
     .800000000000D+02  .276250000000D+02  .433875215501D-08  .277255773182D+01
     .150874257088D-05  .694770575501D-02  .922009348869D-05  .515362341309D+04
     .144000000000D+05 -.119209289551D-06 -.191022403808D+01  .316649675369D-07
     .966155032441D+00  .207250000000D+03  .313072683833D+01 -.791354391658D-08
    -.664313385605D-10  .100000000000D+01  .161200000000D+04  .000000000000D+00
     .240000000000D+01  .000000000000D+00 -.200234353542D-07  .800000000000D+02
     .720600000000D+04  .400000000000D+01
24 10 11 28  4  0  0.0  .342807732522D-03  .341060513165D-11  .000000000000D+00
     .630000000000D+02  .456250000000D+02  .487948896459D-08  .238399791392D+01
     .231526792049D-05  .581548374612D-02  .785104930401D-05  .515473876381D+04
     .144000000000D+05 -.260770320892D-07  .232145669872D+01  .130385160446D-06
     .948636660125D+00  .219156250000D+03 -.301139291820D+00 -.821998525252D-08
     .183579075377D-09  .100000000000D+01  .161200000000D+04  .000000000000D+00
     .485000000000D+01  .000000000000D+00 -.139698386192D-08  .630000000000D+02
     .720600000000D+04  .400000000000D+01
25 10 11 28  4  0  0.0 -.544032081962D-04 -.238742359215D-11  .000000000000D+00
     .730000000000D+02 -.654375000000D+02  .475769817723D-08 -.157121507100D+01
    -.354461371899D-05  .582432025112D-03  .508688390255D-05  .515373819923D+04
     .144000000000D+05 -.186264514923D-07  .159598869191D+00  .726431608200D-07
     .961983525927D+00  .280437500000D+03  .186149816918D+01 -.836963434315D-08
    -.190365072327D-09  .100000000000D+01  .161200000000D+04  .000000000000D+00
     .240000000000D+01  .000000000000D+00  .465661287308D-08  .730000000000D+02
     .720600000000D+04  .400000000000D+01
26 10 11 28  4  0  0.0 -.602216459811D-04 -.829913915368D-11  .000000000000D+00
     .560000000000D+02  .390312500000D+02  .369765402213D-08  .250311666074D+01
     .182166695595D-05  .199192328146D-01  .106021761894D-04  .515364593506D+04
     .144000000000D+05  .109896063805D-06 -.184906900213D+01 -.281259417534D-06
     .988922028595D+00  .186000000000D+03  .111630193672D+01 -.737566436888D-08
    -.104647216119D-09  .100000000000D+01  .161200000000D+04  .000000000000D+00
     .240000000000D+01  .000000000000D+00 -.605359673500D-08  .560000000000D+02
     .720600000000D+04  .400000000000D+01
